[{"OBJECT_NAME":"STARLINK-31886","OBJECT_ID":"2024-084J","EPOCH":"2026-03-09T07:29:29.859360","MEAN_MOTION":15.27572869,"ECCENTRICITY":0.00016957,"INCLINATION":43.0081,"RA_OF_ASC_NODE":44.083,"ARG_OF_PERICENTER":279.9777,"MEAN_ANOMALY":80.0883,"EPHEMERIS_TYPE":0,"CLASSIFICATION_TYPE":"U","NORAD_CAT_ID":59662,"ELEMENT_SET_NO":999,"REV_AT_EPOCH":10431,"BSTAR":-6.3017704e-5,"MEAN_MOTION_DOT":-1.996e-5,"MEAN_MOTION_DDOT":0},{"OBJECT_NAME":"COSMOS 2535 DEB","OBJECT_ID":"2019-039M","EPOCH":"2026-03-08T03:25:35.903424","MEAN_MOTION":15.28322551,"ECCENTRICITY":0.0014917,"INCLINATION":97.5619,"RA_OF_ASC_NODE":139.2722,"ARG_OF_PERICENTER":329.0964,"MEAN_ANOMALY":30.9396,"EPHEMERIS_TYPE":0,"CLASSIFICATION_TYPE":"U","NORAD_CAT_ID":44641,"ELEMENT_SET_NO":999,"REV_AT_EPOCH":35167,"BSTAR":0.0011539757,"MEAN_MOTION_DOT":0.0003196,"MEAN_MOTION_DDOT":0}]
